[{"OBJECT_NAME":"XINGCHI-1 02B","OBJECT_ID":"2023-187C","EPOCH":"2026-03-09T22:36:06.861312","MEAN_MOTION":14.854851,"ECCENTRICITY":0.00120604,"INCLINATION":97.9317,"RA_OF_ASC_NODE":153.3872,"ARG_OF_PERICENTER":104.6634,"MEAN_ANOMALY":255.5919,"EPHEMERIS_TYPE":0,"CLASSIFICATION_TYPE":"U","NORAD_CAT_ID":58498,"ELEMENT_SET_NO":999,"REV_AT_EPOCH":12244,"BSTAR":0.00027337967,"MEAN_MOTION_DOT":2.307e-5,"MEAN_MOTION_DDOT":0},{"OBJECT_NAME":"CZ-2C DEB","OBJECT_ID":"2014-014E","EPOCH":"2026-03-09T21:08:21.809472","MEAN_MOTION":14.90058698,"ECCENTRICITY":0.00536612,"INCLINATION":98.2109,"RA_OF_ASC_NODE":181.9668,"ARG_OF_PERICENTER":42.9038,"MEAN_ANOMALY":317.6346,"EPHEMERIS_TYPE":0,"CLASSIFICATION_TYPE":"U","NORAD_CAT_ID":39628,"ELEMENT_SET_NO":999,"REV_AT_EPOCH":63514,"BSTAR":0.00154127,"MEAN_MOTION_DOT":0.00015258,"MEAN_MOTION_DDOT":0}]
